[{"OBJECT_NAME":"JILIN-1 GAOFEN 2F","OBJECT_ID":"2021-097A","EPOCH":"2026-03-09T22:15:16.366464","MEAN_MOTION":15.06938169,"ECCENTRICITY":0.00186372,"INCLINATION":97.6538,"RA_OF_ASC_NODE":195.5232,"ARG_OF_PERICENTER":201.1609,"MEAN_ANOMALY":158.885,"EPHEMERIS_TYPE":0,"CLASSIFICATION_TYPE":"U","NORAD_CAT_ID":49338,"ELEMENT_SET_NO":999,"REV_AT_EPOCH":24136,"BSTAR":0.0003789548,"MEAN_MOTION_DOT":5.624e-5,"MEAN_MOTION_DDOT":0},{"OBJECT_NAME":"STARLINK-5881","OBJECT_ID":"2023-088G","EPOCH":"2026-03-09T10:38:00.754656","MEAN_MOTION":15.02534394,"ECCENTRICITY":0.00012216,"INCLINATION":43.0018,"RA_OF_ASC_NODE":108.7289,"ARG_OF_PERICENTER":269.8022,"MEAN_ANOMALY":90.268,"EPHEMERIS_TYPE":0,"CLASSIFICATION_TYPE":"U","NORAD_CAT_ID":57054,"ELEMENT_SET_NO":999,"REV_AT_EPOCH":15033,"BSTAR":-1.5253846e-5,"MEAN_MOTION_DOT":-4.1e-6,"MEAN_MOTION_DDOT":0}]
